GLOBALSTAR M094 [+]     
1 39074U 13005C   24099.85240080 -.00000116  00000+0 -67357-4 0  9994
2 39074  51.9964  64.5350 0000624  56.3187 303.7739 12.62264206517527
GLOBALSTAR M096 [+]     
1 39075U 13005D   24100.02386519 -.00000092  00000+0  65291-4 0  9992
2 39075  52.0055 112.1898 0000505  49.2489 310.8421 12.62264251516461
GLOBALSTAR M078 [+]     
1 39076U 13005E   24099.99804869 -.00000152  00000+0 -26921-3 0  9993
2 39076  51.9867 197.3739 0000466 305.7421  54.3402 12.62260277515082
GLOBALSTAR M095 [+]     
1 39077U 13005F   24099.94448677 -.00000077  00000+0  14821-3 0  9991
2 39077  51.9789 194.9439 0000403  21.7008 338.3875 12.62276677514936
GLOBALSTAR M087 [+]     
1 52888U 22064A   24099.91536953 -.00000114  00000+0  27892-4 0  9998
2 52888  51.9749  89.9261 0009298 186.4360 173.6423 13.37569345 88254
